{"type":"Topology","arcs":[[[39212,52482],[0,-16965]],[[39212,35517],[-2309,-1114],[-1848,-589],[-1335,-140],[-1588,161],[-542,-119],[-1121,-774],[-1742,-971],[-952,-226],[-611,-509],[-636,-1392],[-539,-714],[-1094,-453],[-1063,290],[-1548,-301],[-222,350],[-1621,142],[-1458,-133],[-979,-273],[-1395,-35],[-541,-377],[-456,-796],[-1371,-332],[-1878,-1510],[-1368,-331],[-2631,327],[-1310,575],[-644,801],[-1108,662],[-664,143],[-37,2207],[463,-382],[825,334],[415,1008],[-160,1568],[221,295],[74,2026],[-98,576],[-1288,2642],[-451,1763],[-87,2332],[-253,866],[-564,808],[-225,980],[-920,1377],[-165,1598],[-173,588],[-788,1488],[-1182,1807],[390,405],[476,-1349],[376,-110],[294,783],[-651,696],[-479,1148],[356,262],[841,-1198],[155,-689],[675,-92],[-3,1305],[-548,914],[-795,1692],[-625,1613],[8,904],[326,1190],[504,937],[93,1176],[-277,1150],[681,2082],[508,-1145],[528,-54],[557,1189],[633,615],[1475,728],[1371,1375],[1719,1121],[1068,39],[660,-239],[686,234],[1273,797],[1365,337],[872,794],[1190,-128],[449,238],[1059,147],[1685,728],[745,557],[775,1107],[840,1875],[427,249],[876,1063],[-305,204],[-222,1250],[31,701],[672,1023],[712,544],[618,1046],[424,-1271],[947,-1855],[343,1378],[282,463],[-711,1124],[589,889],[322,-566],[1773,801],[-482,1059],[1130,1780],[999,644],[-160,685],[1242,974],[839,-318],[224,1134],[363,-148],[358,431],[411,-423],[824,1242],[963,-568],[939,-776],[530,-864],[771,-794],[-61,-869],[748,761],[1296,-247]],[[39212,85640],[0,-33158]],[[39212,85640],[1129,-186],[727,428],[-359,685],[-567,498],[199,533],[619,696],[320,1213],[733,371],[306,435],[-308,468],[82,560],[572,803],[538,122],[13,643],[681,-275],[364,995],[970,-260],[1111,134],[435,-146],[761,124],[523,384],[224,1375],[-492,469],[-844,-28],[-795,684],[370,270],[744,-69],[1038,-899],[431,341],[414,-184],[396,-753],[860,-329],[917,-48],[822,-523],[744,-158],[475,227],[740,-623],[465,-84],[1409,938],[544,-848],[181,-688],[442,-34],[24,901],[667,518],[443,-801],[563,-368],[-1014,-1294],[142,-655],[-330,-659],[-412,260],[-907,-496],[154,-1507],[-262,-1022],[-1181,-1803],[310,-721],[1666,-1201],[213,-497],[722,-407],[497,-559],[537,48],[734,-561],[999,-496],[739,-962]],[[61450,80619],[-2,-28137]],[[61448,52482],[-22236,0]],[[58810,87701],[-98,-339],[-1312,191],[151,1084],[571,563],[368,-496],[-146,-686],[466,-317]],[[43110,94977],[-191,-294],[-753,529],[-111,539],[461,418],[296,-1020],[298,-172]],[[45318,96033],[-448,-978],[-843,-642],[-756,548],[-549,884],[1483,332],[606,431],[507,-575]],[[61448,52482],[7413,0],[0,-8939]],[[68861,43543],[59,-15030]],[[68920,28513],[-143,113],[-4,-12116]],[[68773,16510],[-838,128],[-585,393],[-441,759],[-1057,1180],[-113,555],[294,1185],[-763,1685],[-1263,1213],[711,782],[-328,237],[-1657,-879],[-834,89],[532,855],[276,897],[-53,777],[-990,1769],[-420,-852],[-111,-809],[-451,-1238],[-574,35],[-1423,-323],[323,965],[931,7],[252,940],[2,1302],[387,899],[695,835],[-196,1127],[346,318],[-196,964],[-1163,-1261],[-507,-1298],[-1487,-796],[-506,-398],[-1935,-2710],[-488,1069],[-654,2009],[-732,835],[-242,888],[-453,411],[-757,76],[-496,1240],[330,596],[-1687,1090],[-838,-3],[-1124,678],[-1340,-151],[-1220,926],[-1427,597],[-891,-322],[-1614,74],[-2786,-338]],[[61268,23499],[-1187,-1039],[-1713,124],[-530,425],[242,422],[1718,465],[649,-435],[821,38]],[[61450,80619],[599,-484],[940,-178],[950,-362],[589,-1279],[475,-155],[1470,-959],[1175,233],[789,626],[335,1191],[626,1098],[475,1718],[99,1383],[430,1635],[-254,1748],[176,945],[-300,1059],[427,1604],[-79,941],[589,1087],[-430,260],[316,1225],[360,548],[463,1856],[72,974],[713,712],[658,-903],[281,-883],[89,-1533],[757,-397],[-170,-1040],[720,-1002],[457,-2395],[-94,-886],[513,-1811],[508,-340],[613,480],[650,209],[432,-777],[1581,-1343],[-40,-1589],[461,-1728],[-79,-1042],[1176,-1978],[553,-1684],[-232,-1900],[744,-837],[-90,-857],[455,-707],[1625,-937],[692,44],[414,-728],[814,-734],[1115,-651],[577,-172],[393,-430],[-188,-866],[262,-463],[1026,-1161],[631,-1908],[335,-1467],[267,-544],[920,823],[392,-622],[757,-554],[550,-51],[48,-1790],[148,-838],[971,-1094],[654,-558],[470,-77],[523,-485],[561,-1181],[807,-611],[489,-1190],[640,-686],[18,-764],[604,-821],[-200,-1013],[193,-2022],[-112,-631],[664,-1711],[320,-1120]],[[99778,46089],[-981,-617],[-904,-14],[-640,280],[-1302,-811],[144,-1011],[-1163,-243],[-398,-548],[-400,720],[-926,708],[-955,28],[-318,259],[-1640,-144],[-408,97],[-1328,-1249],[-19698,-1]],[[99202,56238],[168,-967],[-516,-1341],[-255,953],[374,366],[229,989]],[[65367,81098],[-389,-793],[-340,578],[729,215]],[[86993,4474],[-785,-443],[-243,-932],[139,-1742],[-482,-188],[-523,1116],[-410,-144],[-403,-960],[-414,-178],[-503,-1003],[-804,308],[-1248,-114],[-168,805],[-427,98],[-778,946],[-543,1139],[-73,1564],[-1138,1790],[-326,1305],[427,773],[1147,-144],[1330,-759],[1226,-414],[635,63],[1026,447],[1149,-27],[412,467],[858,194],[801,-499],[21,-3256],[97,-212]],[[86771,10467],[-359,-484],[-531,738],[271,765],[619,-1019]],[[76567,11404],[50,-502],[-599,-496],[-91,1139],[640,-141]],[[68920,28513],[1384,-442],[432,238],[980,-184],[533,-475],[130,-774],[359,-544],[422,528],[1184,-403],[345,-442],[40,-733],[513,-594],[1742,-1201],[936,-1067],[613,-56],[111,550],[1163,261],[946,-425],[991,-237],[628,189],[1052,-317],[1263,383],[877,46],[525,-268],[597,-2255],[4265,-2080]],[[90951,18211],[-932,-684],[-659,-214],[-2560,-85],[-953,-309],[-1189,-849],[-1331,-1323],[-1583,-356],[-694,-354],[-357,699],[-972,392],[358,422],[-616,465],[-252,-435],[-691,118],[515,753],[-565,571],[-871,-529],[313,-396],[-1393,-751],[-716,-705],[-674,-364],[-772,232],[-1518,868],[-1049,156],[-1143,381],[-743,-274],[-1131,870]],[[92836,25306],[-231,-210],[-1029,-1918],[-328,-2136],[-253,-879],[-44,-1952]],[[99778,46089],[149,-286],[72,-1830],[-634,-1298],[-187,-1794],[-597,-1999],[43,-1025],[-257,-1572],[-391,-1047],[-560,-773],[-219,-1172],[-756,-949],[-869,-428],[-813,-1330],[-623,-2033],[-670,-796],[-630,-2451]]],"transform":{"scale":[0.0004047318173181733,0.0003356110761107611],"translate":[113.131813,-43.612471]},"objects":{"states":{"type":"GeometryCollection","geometries":[{"arcs":[[0,1,2]],"type":"Polygon","properties":{"code":"WA"}},{"arcs":[[[-3,3,4,5]],[[6]],[[7]],[[8]]],"type":"MultiPolygon","properties":{"code":"NT"}},{"arcs":[[[-1,-6,9,10,11,12]],[[13]]],"type":"MultiPolygon","properties":{"code":"SA"}},{"arcs":[[[-5,14,15,-10]],[[16]],[[17]]],"type":"MultiPolygon","properties":{"code":"QLD"}},{"arcs":[[[18]],[[19]],[[20]]],"type":"MultiPolygon","properties":{"code":"TAS"}},{"arcs":[[-12,21,22]],"type":"Polygon","properties":{"code":"VIC"}},{"arcs":[[23,-22,-11,-16,24]],"type":"Polygon","properties":{"code":"NSW"}}]}}}